{"type": "FeatureCollection", "features": [ {"type": "Feature", "properties": {"norad_id": 43622, "name": "BEIDOU-3 M13 (C32)", "group": "beidou", "lat": 1.089627119109215, "lon": -112.2995707387745, "alt_km": 21536.80625080212, "timestamp": "2025-12-25T07:00:34.311314+00:00", "meta": {"OBJECT_NAME": "BEIDOU-3 M13 (C32)", "OBJECT_ID": "2018-072A", "EPOCH": "2025-12-22T08:10:31.412640", "MEAN_MOTION": 1.86231166, "ECCENTRICITY": 0.00064111, "INCLINATION": 56.4667, "RA_OF_ASC_NODE": 68.5024, "ARG_OF_PERICENTER": 297.4685, "MEAN_ANOMALY": 62.5173, "EPHEMERIS_TYPE": 0, "CLASSIFICATION_TYPE": "U", "NORAD_CAT_ID": 43622, "ELEMENT_SET_NO": 999, "REV_AT_EPOCH": 4936, "BSTAR": 0, "MEAN_MOTION_DOT": -2.9e-07, "MEAN_MOTION_DDOT": 0}, "tle": {"line1": "1 43622U 18072A   25356.34064135 -.00000029  00000+0  00000+0 0  9992", "line2": "2 43622  56.4667  68.5024 0006411 297.4685  62.5173  1.86231166 49361"}}, "geometry": {"type": "Point", "coordinates": [-112.2995707387745, 1.089627119109215]}}, {"type": "Feature", "properties": {"norad_id": 43623, "name": "BEIDOU-3 M14 (C33)", "group": "beidou", "lat": -56.47185254459213, "lon": -23.50778131984579, "alt_km": 21528.763178130637, "timestamp": "2025-12-25T07:00:34.311325+00:00", "meta": {"OBJECT_NAME": "BEIDOU-3 M14 (C33)", "OBJECT_ID": "2018-072B", "EPOCH": "2025-12-23T06:43:13.861056", "MEAN_MOTION": 1.86231163, "ECCENTRICITY": 0.00035931, "INCLINATION": 56.4696, "RA_OF_ASC_NODE": 68.4654, "ARG_OF_PERICENTER": 327.0772, "MEAN_ANOMALY": 32.9541, "EPHEMERIS_TYPE": 0, "CLASSIFICATION_TYPE": "U", "NORAD_CAT_ID": 43623, "ELEMENT_SET_NO": 999, "REV_AT_EPOCH": 4937, "BSTAR": 0, "MEAN_MOTION_DOT": -2.6e-07, "MEAN_MOTION_DDOT": 0}, "tle": {"line1": "1 43623U 18072B   25357.28002154 -.00000026  00000+0  00000+0 0  9997", "line2": "2 43623  56.4696  68.4654 0003593 327.0772  32.9541  1.86231163 49375"}}, "geometry": {"type": "Point", "coordinates": [-23.50778131984579, -56.47185254459213]}}, {"type": "Feature", "properties": {"norad_id": 43647, "name": "BEIDOU-3 M16 (C35)", "group": "beidou", "lat": 13.411641802910584, "lon": 116.18619970788602, "alt_km": 21543.004509168364, "timestamp": "2025-12-25T07:00:34.311356+00:00", "meta": {"OBJECT_NAME": "BEIDOU-3 M16 (C35)", "OBJECT_ID": "2018-078A", "EPOCH": "2025-12-24T12:16:42.113856", "MEAN_MOTION": 1.86232278, "ECCENTRICITY": 0.00074637, "INCLINATION": 54.251, "RA_OF_ASC_NODE": 306.1099, "ARG_OF_PERICENTER": 20.5002, "MEAN_ANOMALY": 339.5379, "EPHEMERIS_TYPE": 0, "CLASSIFICATION_TYPE": "U", "NORAD_CAT_ID": 43647, "ELEMENT_SET_NO": 999, "REV_AT_EPOCH": 4890, "BSTAR": 0, "MEAN_MOTION_DOT": -5.2e-07, "MEAN_MOTION_DDOT": 0}, "tle": {"line1": "1 43647U 18078A   25358.51159854 -.00000052  00000+0  00000+0 0  9995", "line2": "2 43647  54.2510 306.1099 0007463  20.5002 339.5379  1.86232278 48909"}}, "geometry": {"type": "Point", "coordinates": [116.18619970788602, 13.411641802910584]}}, {"type": "Feature", "properties": {"norad_id": 43648, "name": "BEIDOU-3 M15 (C34)", "group": "beidou", "lat": 52.176363579673364, "lon": 14.040086469296368, "alt_km": 21515.624083644067, "timestamp": "2025-12-25T07:00:34.311371+00:00", "meta": {"OBJECT_NAME": "BEIDOU-3 M15 (C34)", "OBJECT_ID": "2018-078B", "EPOCH": "2025-12-24T02:29:34.317888", "MEAN_MOTION": 1.86232361, "ECCENTRICITY": 0.0004049, "INCLINATION": 54.2473, "RA_OF_ASC_NODE": 306.125, "ARG_OF_PERICENTER": 19.767, "MEAN_ANOMALY": 340.256, "EPHEMERIS_TYPE": 0, "CLASSIFICATION_TYPE": "U", "NORAD_CAT_ID": 43648, "ELEMENT_SET_NO": 999, "REV_AT_EPOCH": 4891, "BSTAR": 0, "MEAN_MOTION_DOT": -5.2e-07, "MEAN_MOTION_DDOT": 0}, "tle": {"line1": "1 43648U 18078B   25358.10386942 -.00000052  00000+0  00000+0 0  9991", "line2": "2 43648  54.2473 306.1250 0004049  19.7670 340.2560  1.86232361 48910"}}, "geometry": {"type": "Point", "coordinates": [14.040086469296368, 52.176363579673364]}}, {"type": "Feature", "properties": {"norad_id": 43683, "name": "BEIDOU-3 G1 (C59)", "group": "beidou", "lat": -2.2131421139342717, "lon": -20.889282268185877, "alt_km": 35793.78246361848, "timestamp": "2025-12-25T07:00:34.311383+00:00", "meta": {"OBJECT_NAME": "BEIDOU-3 G1 (C59)", "OBJECT_ID": "2018-085A", "EPOCH": "2025-12-24T22:19:33.057408", "MEAN_MOTION": 1.00266595, "ECCENTRICITY": 0.00014387, "INCLINATION": 2.6365, "RA_OF_ASC_NODE": 102.6072, "ARG_OF_PERICENTER": 44.2088, "MEAN_ANOMALY": 61.7239, "EPHEMERIS_TYPE": 0, "CLASSIFICATION_TYPE": "U", "NORAD_CAT_ID": 43683, "ELEMENT_SET_NO": 999, "REV_AT_EPOCH": 2631, "BSTAR": 0, "MEAN_MOTION_DOT": -2.58e-06, "MEAN_MOTION_DDOT": 0}, "tle": {"line1": "1 43683U 18085A   25358.93024372 -.00000258  00000+0  00000+0 0  9993", "line2": "2 43683   2.6365 102.6072 0001438  44.2088  61.7239  1.00266595 26312"}}, "geometry": {"type": "Point", "coordinates": [-20.889282268185877, -2.2131421139342717]}}, {"type": "Feature", "properties": {"norad_id": 43706, "name": "BEIDOU-3 M17 (C36)", "group": "beidou", "lat": -23.735852957571733, "lon": 169.66882022518297, "alt_km": 21515.907001906427, "timestamp": "2025-12-25T07:00:34.311396+00:00", "meta": {"OBJECT_NAME": "BEIDOU-3 M17 (C36)", "OBJECT_ID": "2018-093A", "EPOCH": "2025-12-22T11:03:17.644896", "MEAN_MOTION": 1.86228432, "ECCENTRICITY": 0.00060427, "INCLINATION": 54.173, "RA_OF_ASC_NODE": 188.2918, "ARG_OF_PERICENTER": 307.405, "MEAN_ANOMALY": 284.4943, "EPHEMERIS_TYPE": 0, "CLASSIFICATION_TYPE": "U", "NORAD_CAT_ID": 43706, "ELEMENT_SET_NO": 999, "REV_AT_EPOCH": 4824, "BSTAR": 0, "MEAN_MOTION_DOT": 9.4e-07, "MEAN_MOTION_DDOT": 0}, "tle": {"line1": "1 43706U 18093A   25356.46062089  .00000094  00000+0  00000+0 0  9998", "line2": "2 43706  54.1730 188.2918 0006042 307.4050 284.4943  1.86228432 48248"}}, "geometry": {"type": "Point", "coordinates": [169.66882022518297, -23.735852957571733]}}, {"type": "Feature", "properties": {"norad_id": 43707, "name": "BEIDOU-3 M18 (C37)", "group": "beidou", "lat": 46.27536554813111, "lon": -122.73151808846562, "alt_km": 21516.746388310068, "timestamp": "2025-12-25T07:00:34.311407+00:00", "meta": {"OBJECT_NAME": "BEIDOU-3 M18 (C37)", "OBJECT_ID": "2018-093B", "EPOCH": "2025-12-23T01:12:21.238848", "MEAN_MOTION": 1.86226616, "ECCENTRICITY": 0.0006147, "INCLINATION": 54.1741, "RA_OF_ASC_NODE": 188.2636, "ARG_OF_PERICENTER": 354.1254, "MEAN_ANOMALY": 5.9078, "EPHEMERIS_TYPE": 0, "CLASSIFICATION_TYPE": "U", "NORAD_CAT_ID": 43707, "ELEMENT_SET_NO": 999, "REV_AT_EPOCH": 4825, "BSTAR": 0, "MEAN_MOTION_DOT": 9.6e-07, "MEAN_MOTION_DDOT": 0}, "tle": {"line1": "1 43707U 18093B   25357.05024582  .00000096  00000+0  00000+0 0  9993", "line2": "2 43707  54.1741 188.2636 0006147 354.1254   5.9078  1.86226616 48257"}}, "geometry": {"type": "Point", "coordinates": [-122.73151808846562, 46.27536554813111]}}, {"type": "Feature", "properties": {"norad_id": 44231, "name": "BEIDOU-2 G8 (C01)", "group": "beidou", "lat": -1.7022061711073861, "lon": -16.278085980656318, "alt_km": 35751.200238546386, "timestamp": "2025-12-25T07:00:34.311420+00:00", "meta": {"OBJECT_NAME": "BEIDOU-2 G8 (C01)", "OBJECT_ID": "2019-027A", "EPOCH": "2025-12-24T22:20:47.936832", "MEAN_MOTION": 1.0027457, "ECCENTRICITY": 0.00082946, "INCLINATION": 1.6908, "RA_OF_ASC_NODE": 74.7358, "ARG_OF_PERICENTER": 259.0512, "MEAN_ANOMALY": 239.621, "EPHEMERIS_TYPE": 0, "CLASSIFICATION_TYPE": "U", "NORAD_CAT_ID": 44231, "ELEMENT_SET_NO": 999, "REV_AT_EPOCH": 2433, "BSTAR": 0, "MEAN_MOTION_DOT": -2.26e-06, "MEAN_MOTION_DDOT": 0}, "tle": {"line1": "1 44231U 19027A   25358.93111038 -.00000226  00000+0  00000+0 0  9991", "line2": "2 44231   1.6908  74.7358 0008294 259.0512 239.6210  1.00274570 24332"}}, "geometry": {"type": "Point", "coordinates": [-16.278085980656318, -1.7022061711073861]}}, {"type": "Feature", "properties": {"norad_id": 44337, "name": "BEIDOU-3 IGSO-2 (C39)", "group": "beidou", "lat": 17.994709243450572, "lon": -32.675393858307345, "alt_km": 35671.88073489566, "timestamp": "2025-12-25T07:00:34.311432+00:00", "meta": {"OBJECT_NAME": "BEIDOU-3 IGSO-2 (C39)", "OBJECT_ID": "2019-035A", "EPOCH": "2025-12-24T20:30:50.966784", "MEAN_MOTION": 1.00267539, "ECCENTRICITY": 0.00378522, "INCLINATION": 55.2292, "RA_OF_ASC_NODE": 160.3949, "ARG_OF_PERICENTER": 202.5754, "MEAN_ANOMALY": 157.6854, "EPHEMERIS_TYPE": 0, "CLASSIFICATION_TYPE": "U", "NORAD_CAT_ID": 44337, "ELEMENT_SET_NO": 999, "REV_AT_EPOCH": 2392, "BSTAR": 0, "MEAN_MOTION_DOT": -7e-07, "MEAN_MOTION_DDOT": 0}, "tle": {"line1": "1 44337U 19035A   25358.85475656 -.00000070  00000+0  00000+0 0  9994", "line2": "2 44337  55.2292 160.3949 0037852 202.5754 157.6854  1.00267539 23925"}}, "geometry": {"type": "Point", "coordinates": [-32.675393858307345, 17.994709243450572]}}, {"type": "Feature", "properties": {"norad_id": 44542, "name": "BEIDOU-3 M24 (C46)", "group": "beidou", "lat": 12.557009686814846, "lon": -162.21903981432808, "alt_km": 21500.526438998015, "timestamp": "2025-12-25T07:00:34.311449+00:00", "meta": {"OBJECT_NAME": "BEIDOU-3 M24 (C46)", "OBJECT_ID": "2019-061A", "EPOCH": "2025-12-24T04:40:53.254848", "MEAN_MOTION": 1.86229374, "ECCENTRICITY": 0.00095879, "INCLINATION": 54.4008, "RA_OF_ASC_NODE": 188.6295, "ARG_OF_PERICENTER": 26.2162, "MEAN_ANOMALY": 333.8692, "EPHEMERIS_TYPE": 0, "CLASSIFICATION_TYPE": "U", "NORAD_CAT_ID": 44542, "ELEMENT_SET_NO": 999, "REV_AT_EPOCH": 4253, "BSTAR": 0, "MEAN_MOTION_DOT": 1.02e-06, "MEAN_MOTION_DDOT": 0}, "tle": {"line1": "1 44542U 19061A   25358.19506082  .00000102  00000+0  00000+0 0  9991", "line2": "2 44542  54.4008 188.6295 0009587  26.2162 333.8692  1.86229374 42539"}}, "geometry": {"type": "Point", "coordinates": [-162.21903981432808, 12.557009686814846]}}]}